{"type": "FeatureCollection", "features": [ {"type": "Feature", "properties": {"norad_id": 66956, "name": "HULIANWANG DIGUI-117", "group": "last-30-days", "lat": -60.61007317263396, "lon": -21.74404860308737, "alt_km": 1013.2300966166631, "timestamp": "2025-12-17T07:00:45.614699+00:00", "meta": {"OBJECT_NAME": "HULIANWANG DIGUI-117", "OBJECT_ID": "2025-287D", "EPOCH": "2025-12-16T06:45:06.569856", "MEAN_MOTION": 13.69018692, "ECCENTRICITY": 0.00077617, "INCLINATION": 86.4974, "RA_OF_ASC_NODE": 344.867, "ARG_OF_PERICENTER": 181.5999, "MEAN_ANOMALY": 178.5137, "EPHEMERIS_TYPE": 0, "CLASSIFICATION_TYPE": "U", "NORAD_CAT_ID": 66956, "ELEMENT_SET_NO": 999, "REV_AT_EPOCH": 101, "BSTAR": 2.3352809e-05, "MEAN_MOTION_DOT": 3.7e-07, "MEAN_MOTION_DDOT": 0}, "tle": {"line1": "1 66956U 25287D   25350.28132604  .00000037  00000+0  23353-4 0  9996", "line2": "2 66956  86.4974 344.8670 0007761 181.5999 178.5137 13.69018692  1016"}}, "geometry": {"type": "Point", "coordinates": [-21.74404860308737, -60.61007317263396]}}, {"type": "Feature", "properties": {"norad_id": 66957, "name": "HULIANWANG DIGUI-118", "group": "last-30-days", "lat": -59.615283591334645, "lon": -21.50680381943528, "alt_km": 1015.120627546672, "timestamp": "2025-12-17T07:00:45.614711+00:00", "meta": {"OBJECT_NAME": "HULIANWANG DIGUI-118", "OBJECT_ID": "2025-287E", "EPOCH": "2025-12-16T22:31:52.685472", "MEAN_MOTION": 13.68572561, "ECCENTRICITY": 0.00076986, "INCLINATION": 86.4948, "RA_OF_ASC_NODE": 344.6222, "ARG_OF_PERICENTER": 176.7313, "MEAN_ANOMALY": 183.3897, "EPHEMERIS_TYPE": 0, "CLASSIFICATION_TYPE": "U", "NORAD_CAT_ID": 66957, "ELEMENT_SET_NO": 999, "REV_AT_EPOCH": 110, "BSTAR": 0.00016345129, "MEAN_MOTION_DOT": 1.57e-06, "MEAN_MOTION_DDOT": 0}, "tle": {"line1": "1 66957U 25287E   25350.93880423  .00000157  00000+0  16345-3 0  9993", "line2": "2 66957  86.4948 344.6222 0007698 176.7313 183.3897 13.68572561  1100"}}, "geometry": {"type": "Point", "coordinates": [-21.50680381943528, -59.615283591334645]}}, {"type": "Feature", "properties": {"norad_id": 66958, "name": "CZ-6A R/B", "group": "last-30-days", "lat": -8.247480112248201, "lon": -16.137492341996715, "alt_km": 923.601746842477, "timestamp": "2025-12-17T07:00:45.614724+00:00", "meta": {"OBJECT_NAME": "CZ-6A R/B", "OBJECT_ID": "2025-287F", "EPOCH": "2025-12-16T22:26:39.577056", "MEAN_MOTION": 13.94920634, "ECCENTRICITY": 0.01073224, "INCLINATION": 86.5058, "RA_OF_ASC_NODE": 344.5056, "ARG_OF_PERICENTER": 89.5421, "MEAN_ANOMALY": 271.805, "EPHEMERIS_TYPE": 0, "CLASSIFICATION_TYPE": "U", "NORAD_CAT_ID": 66958, "ELEMENT_SET_NO": 999, "REV_AT_EPOCH": 112, "BSTAR": 0.00010708607, "MEAN_MOTION_DOT": 1.7e-06, "MEAN_MOTION_DDOT": 0}, "tle": {"line1": "1 66958U 25287F   25350.93518029  .00000170  00000+0  10709-3 0  9997", "line2": "2 66958  86.5058 344.5056 0107322  89.5421 271.8050 13.94920634  1127"}}, "geometry": {"type": "Point", "coordinates": [-16.137492341996715, -8.247480112248201]}}, {"type": "Feature", "properties": {"norad_id": 66988, "name": "YAOGAN-47", "group": "last-30-days", "lat": 76.13731621262949, "lon": -91.18050936243176, "alt_km": 488.61440238107025, "timestamp": "2025-12-17T07:00:45.614734+00:00", "meta": {"OBJECT_NAME": "YAOGAN-47", "OBJECT_ID": "2025-289A", "EPOCH": "2025-12-15T02:32:19.481856", "MEAN_MOTION": 15.23184629, "ECCENTRICITY": 7.87e-05, "INCLINATION": 97.5271, "RA_OF_ASC_NODE": 54.2297, "ARG_OF_PERICENTER": 67.3408, "MEAN_ANOMALY": 292.7912, "EPHEMERIS_TYPE": 0, "CLASSIFICATION_TYPE": "U", "NORAD_CAT_ID": 66988, "ELEMENT_SET_NO": 999, "REV_AT_EPOCH": 90, "BSTAR": 0.00011849353, "MEAN_MOTION_DOT": 2.729e-05, "MEAN_MOTION_DDOT": 0}, "tle": {"line1": "1 66988U 25289A   25349.10578104  .00002729  00000+0  11849-3 0  9997", "line2": "2 66988  97.5271  54.2297 0000787  67.3408 292.7912 15.23184629   901"}}, "geometry": {"type": "Point", "coordinates": [-91.18050936243176, 76.13731621262949]}}, {"type": "Feature", "properties": {"norad_id": 66989, "name": "CZ-4B R/B", "group": "last-30-days", "lat": -77.76808732973329, "lon": 94.54972250379849, "alt_km": 329.98094398150806, "timestamp": "2025-12-17T07:00:45.614746+00:00", "meta": {"OBJECT_NAME": "CZ-4B R/B", "OBJECT_ID": "2025-289B", "EPOCH": "2025-12-16T17:33:52.394688", "MEAN_MOTION": 15.68199823, "ECCENTRICITY": 0.01460117, "INCLINATION": 97.5268, "RA_OF_ASC_NODE": 56.3647, "ARG_OF_PERICENTER": 347.8669, "MEAN_ANOMALY": 11.9088, "EPHEMERIS_TYPE": 0, "CLASSIFICATION_TYPE": "U", "NORAD_CAT_ID": 66989, "ELEMENT_SET_NO": 999, "REV_AT_EPOCH": 119, "BSTAR": 0.00057740752, "MEAN_MOTION_DOT": 0.00118047, "MEAN_MOTION_DDOT": 6.198974e-06}, "tle": {"line1": "1 66989U 25289B   25350.73185642  .00118047  61990-5  57741-3 0  9993", "line2": "2 66989  97.5268  56.3647 0146011 347.8669  11.9088 15.68199823  1194"}}, "geometry": {"type": "Point", "coordinates": [94.54972250379849, -77.76808732973329]}}, {"type": "Feature", "properties": {"norad_id": 66990, "name": "TJS-22", "group": "last-30-days", "lat": 3.2185878245880892, "lon": -51.74053599232972, "alt_km": 35403.50246680331, "timestamp": "2025-12-17T07:00:45.614758+00:00", "meta": {"OBJECT_NAME": "TJS-22", "OBJECT_ID": "2025-290A", "EPOCH": "2025-12-10T07:11:32.845344", "MEAN_MOTION": 2.15443148, "ECCENTRICITY": 0.6664534, "INCLINATION": 20.1261, "RA_OF_ASC_NODE": 301.1464, "ARG_OF_PERICENTER": 180.6877, "MEAN_ANOMALY": 177.6237, "EPHEMERIS_TYPE": 0, "CLASSIFICATION_TYPE": "U", "NORAD_CAT_ID": 66990, "ELEMENT_SET_NO": 999, "REV_AT_EPOCH": 3, "BSTAR": 0.079788243, "MEAN_MOTION_DOT": -3.8e-07, "MEAN_MOTION_DDOT": 0}, "tle": {"line1": "1 66990U 25290A   25344.29968571 -.00000038  00000+0  79788-1 0  9994", "line2": "2 66990  20.1261 301.1464 6664534 180.6877 177.6237  2.15443148    32"}}, "geometry": {"type": "Point", "coordinates": [-51.74053599232972, 3.2185878245880892]}}, {"type": "Feature", "properties": {"norad_id": 66991, "name": "CZ-3B R/B", "group": "last-30-days", "lat": -12.154385115717625, "lon": -83.53975822691406, "alt_km": 23906.874790477134, "timestamp": "2025-12-17T07:00:45.614772+00:00", "meta": {"OBJECT_NAME": "CZ-3B R/B", "OBJECT_ID": "2025-290B", "EPOCH": "2025-12-15T17:23:33.043200", "MEAN_MOTION": 2.38388611, "ECCENTRICITY": 0.7240884, "INCLINATION": 28.4636, "RA_OF_ASC_NODE": 300.4666, "ARG_OF_PERICENTER": 182.7002, "MEAN_ANOMALY": 168.625, "EPHEMERIS_TYPE": 0, "CLASSIFICATION_TYPE": "U", "NORAD_CAT_ID": 66991, "ELEMENT_SET_NO": 999, "REV_AT_EPOCH": 16, "BSTAR": 0.00075879, "MEAN_MOTION_DOT": 0.00057911, "MEAN_MOTION_DDOT": -2.0514e-07}, "tle": {"line1": "1 66991U 25290B   25349.72468800  .00057911 -20514-6  75879-3 0  9998", "line2": "2 66991  28.4636 300.4666 7240884 182.7002 168.6250  2.38388611   165"}}, "geometry": {"type": "Point", "coordinates": [-83.53975822691406, -12.154385115717625]}}, {"type": "Feature", "properties": {"norad_id": 66993, "name": "2025-292A", "group": "last-30-days", "lat": 21.755806506711668, "lon": -113.12424895633023, "alt_km": 554.1206797889054, "timestamp": "2025-12-17T07:00:45.614783+00:00", "meta": {"OBJECT_NAME": "2025-292A", "OBJECT_ID": "2025-292A", "EPOCH": "2025-12-16T19:08:17.870784", "MEAN_MOTION": 15.0452441, "ECCENTRICITY": 0.00137835, "INCLINATION": 97.6536, "RA_OF_ASC_NODE": 63.3095, "ARG_OF_PERICENTER": 257.5747, "MEAN_ANOMALY": 102.3937, "EPHEMERIS_TYPE": 0, "CLASSIFICATION_TYPE": "U", "NORAD_CAT_ID": 66993, "ELEMENT_SET_NO": 999, "REV_AT_EPOCH": 100, "BSTAR": 0.00024707184, "MEAN_MOTION_DOT": 3.406e-05, "MEAN_MOTION_DDOT": 0}, "tle": {"line1": "1 66993U 25292A   25350.79742906  .00003406  00000+0  24707-3 0  9997", "line2": "2 66993  97.6536  63.3095 0013783 257.5747 102.3937 15.04524410  1008"}}, "geometry": {"type": "Point", "coordinates": [-113.12424895633023, 21.755806506711668]}}, {"type": "Feature", "properties": {"norad_id": 66994, "name": "2025-292B", "group": "last-30-days", "lat": 20.58056868976904, "lon": -113.30750099096144, "alt_km": 554.3558484597925, "timestamp": "2025-12-17T07:00:45.614793+00:00", "meta": {"OBJECT_NAME": "2025-292B", "OBJECT_ID": "2025-292B", "EPOCH": "2025-12-16T17:32:14.053344", "MEAN_MOTION": 15.04568038, "ECCENTRICITY": 0.00138285, "INCLINATION": 97.6528, "RA_OF_ASC_NODE": 63.2425, "ARG_OF_PERICENTER": 260.0817, "MEAN_ANOMALY": 99.8848, "EPHEMERIS_TYPE": 0, "CLASSIFICATION_TYPE": "U", "NORAD_CAT_ID": 66994, "ELEMENT_SET_NO": 999, "REV_AT_EPOCH": 99, "BSTAR": 0.00028326555, "MEAN_MOTION_DOT": 3.919e-05, "MEAN_MOTION_DDOT": 0}, "tle": {"line1": "1 66994U 25292B   25350.73071821  .00003919  00000+0  28327-3 0  9994", "line2": "2 66994  97.6528  63.2425 0013828 260.0817  99.8848 15.04568038   995"}}, "geometry": {"type": "Point", "coordinates": [-113.30750099096144, 20.58056868976904]}}, {"type": "Feature", "properties": {"norad_id": 66995, "name": "2025-292C", "group": "last-30-days", "lat": 20.402505525553472, "lon": -113.33296750838855, "alt_km": 554.0215621083362, "timestamp": "2025-12-17T07:00:45.614803+00:00", "meta": {"OBJECT_NAME": "2025-292C", "OBJECT_ID": "2025-292C", "EPOCH": "2025-12-16T22:19:29.893440", "MEAN_MOTION": 15.04587621, "ECCENTRICITY": 0.00138381, "INCLINATION": 97.6535, "RA_OF_ASC_NODE": 63.4416, "ARG_OF_PERICENTER": 257.7327, "MEAN_ANOMALY": 102.2349, "EPHEMERIS_TYPE": 0, "CLASSIFICATION_TYPE": "U", "NORAD_CAT_ID": 66995, "ELEMENT_SET_NO": 999, "REV_AT_EPOCH": 102, "BSTAR": 0.0003222694, "MEAN_MOTION_DOT": 4.47e-05, "MEAN_MOTION_DDOT": 0}, "tle": {"line1": "1 66995U 25292C   25350.93020710  .00004470  00000+0  32227-3 0  9995", "line2": "2 66995  97.6535  63.4416 0013838 257.7327 102.2349 15.04587621  1025"}}, "geometry": {"type": "Point", "coordinates": [-113.33296750838855, 20.402505525553472]}}]}